{"fetched_at":"2026-07-22T07:09:37.619Z","source":"https://celestrak.org/NORAD/elements/gp.php?NAME=CENTAURI&FORMAT=JSON","constellation":"myriota","records":[{"OBJECT_NAME":"CENTAURI-1","OBJECT_ID":"2018-099BD","EPOCH":"2026-07-21T13:59:10.048416","CLASSIFICATION_TYPE":"U","MEAN_MOTION":15.16665802,"ECCENTRICITY":0.00135482,"INCLINATION":97.42,"RA_OF_ASC_NODE":253.5665,"ARG_OF_PERICENTER":201.5642,"MEAN_ANOMALY":158.5022,"EPHEMERIS_TYPE":0,"NORAD_CAT_ID":43809,"ELEMENT_SET_NO":999,"REV_AT_EPOCH":41771,"BSTAR":0.0002224518,"MEAN_MOTION_DOT":0.00004297,"MEAN_MOTION_DDOT":0},{"OBJECT_NAME":"CENTAURI-6","OBJECT_ID":"2024-066K","EPOCH":"2026-07-21T00:45:58.166208","CLASSIFICATION_TYPE":"U","MEAN_MOTION":15.06069022,"ECCENTRICITY":0.00017777,"INCLINATION":45.6066,"RA_OF_ASC_NODE":77.7031,"ARG_OF_PERICENTER":261.1794,"MEAN_ANOMALY":98.8889,"EPHEMERIS_TYPE":0,"NORAD_CAT_ID":59451,"ELEMENT_SET_NO":999,"REV_AT_EPOCH":12522,"BSTAR":0.00023616379,"MEAN_MOTION_DOT":0.00003257,"MEAN_MOTION_DDOT":0},{"OBJECT_NAME":"CENTAURI-7","OBJECT_ID":"2025-009DD","EPOCH":"2026-07-21T12:44:12.530976","CLASSIFICATION_TYPE":"U","MEAN_MOTION":14.97995146,"ECCENTRICITY":0.00023331,"INCLINATION":97.7089,"RA_OF_ASC_NODE":282.3726,"ARG_OF_PERICENTER":93.458,"MEAN_ANOMALY":266.6909,"EPHEMERIS_TYPE":0,"NORAD_CAT_ID":62708,"ELEMENT_SET_NO":999,"REV_AT_EPOCH":8260,"BSTAR":0.00013892676,"MEAN_MOTION_DOT":0.00001582,"MEAN_MOTION_DDOT":0},{"OBJECT_NAME":"CENTAURI-8","OBJECT_ID":"2025-009DK","EPOCH":"2026-07-21T11:49:36.767424","CLASSIFICATION_TYPE":"U","MEAN_MOTION":14.97950869,"ECCENTRICITY":0.00025336,"INCLINATION":97.7034,"RA_OF_ASC_NODE":282.1508,"ARG_OF_PERICENTER":74.6588,"MEAN_ANOMALY":285.4914,"EPHEMERIS_TYPE":0,"NORAD_CAT_ID":62714,"ELEMENT_SET_NO":999,"REV_AT_EPOCH":8261,"BSTAR":0.00020633027,"MEAN_MOTION_DOT":0.00002375,"MEAN_MOTION_DDOT":0}]}
