{"epoch":1784710044,"count":18256,"objects":[{"id":"43809","name":"CENTAURI-1","type":"PAYLOAD","l1":"1 43809U 18099BD  26202.58275519  .00004297  00000-0  22245-3 0  9995","l2":"2 43809  97.4200 253.5665 0013548 201.5642 158.5022 15.16665802417714"},{"id":"59451","name":"CENTAURI-6","type":"PAYLOAD","l1":"1 59451U 24066K   26202.03192322  .00003257  00000-0  23616-3 0  9994","l2":"2 59451  45.6066  77.7031 0001778 261.1794  98.8889 15.06069022125224"},{"id":"62708","name":"CENTAURI-7","type":"PAYLOAD","l1":"1 62708U 25009DD  26202.53070059  .00001582  00000-0  13893-3 0  9993","l2":"2 62708  97.7089 282.3726 0002333  93.4580 266.6909 14.97995146 82604"},{"id":"62714","name":"CENTAURI-8","type":"PAYLOAD","l1":"1 62714U 25009DK  26202.49278666  .00002375  00000-0  20633-3 0  9990","l2":"2 62714  97.7034 282.1508 0002534  74.6588 285.4914 14.97950869 82618"}]}